{"type": "FeatureCollection", "features": [ {"type": "Feature", "properties": {"norad_id": 66919, "name": "HULIANWANG DIGUI-109", "group": "last-30-days", "lat": 48.89890527988059, "lon": -172.2539225875687, "alt_km": 878.4066278824303, "timestamp": "2025-12-21T09:37:21.373906+00:00", "meta": {"OBJECT_NAME": "HULIANWANG DIGUI-109", "OBJECT_ID": "2025-285E", "EPOCH": "2025-12-21T05:43:47.364960", "MEAN_MOTION": 14.03726241, "ECCENTRICITY": 0.0007883, "INCLINATION": 50.0072, "RA_OF_ASC_NODE": 82.6026, "ARG_OF_PERICENTER": 320.7576, "MEAN_ANOMALY": 39.2757, "EPHEMERIS_TYPE": 0, "CLASSIFICATION_TYPE": "U", "NORAD_CAT_ID": 66919, "ELEMENT_SET_NO": 999, "REV_AT_EPOCH": 210, "BSTAR": 0.00011402, "MEAN_MOTION_DOT": 2.9e-07, "MEAN_MOTION_DDOT": 0}, "tle": {"line1": "1 66919U 25285E   25355.23874265  .00000029  00000+0  11402-3 0  9991", "line2": "2 66919  50.0072  82.6026 0007883 320.7576  39.2757 14.03726241  2103"}}, "geometry": {"type": "Point", "coordinates": [-172.2539225875687, 48.89890527988059]}}, {"type": "Feature", "properties": {"norad_id": 66920, "name": "HULIANWANG DIGUI-110", "group": "last-30-days", "lat": 47.84877595530105, "lon": -166.06492745215198, "alt_km": 877.7517742743748, "timestamp": "2025-12-21T09:37:21.373917+00:00", "meta": {"OBJECT_NAME": "HULIANWANG DIGUI-110", "OBJECT_ID": "2025-285F", "EPOCH": "2025-12-21T05:42:34.374240", "MEAN_MOTION": 14.03682431, "ECCENTRICITY": 0.0005587, "INCLINATION": 50.0105, "RA_OF_ASC_NODE": 82.6044, "ARG_OF_PERICENTER": 317.9299, "MEAN_ANOMALY": 42.1176, "EPHEMERIS_TYPE": 0, "CLASSIFICATION_TYPE": "U", "NORAD_CAT_ID": 66920, "ELEMENT_SET_NO": 999, "REV_AT_EPOCH": 210, "BSTAR": 9.4983e-05, "MEAN_MOTION_DOT": -1e-08, "MEAN_MOTION_DDOT": 0}, "tle": {"line1": "1 66920U 25285F   25355.23789785 -.00000001  00000+0  94983-4 0  9992", "line2": "2 66920  50.0105  82.6044 0005587 317.9299  42.1176 14.03682431  2101"}}, "geometry": {"type": "Point", "coordinates": [-166.06492745215198, 47.84877595530105]}}, {"type": "Feature", "properties": {"norad_id": 66921, "name": "HULIANWANG DIGUI-111", "group": "last-30-days", "lat": 46.43060250480628, "lon": -159.98102072425914, "alt_km": 878.8037260607234, "timestamp": "2025-12-21T09:37:21.373927+00:00", "meta": {"OBJECT_NAME": "HULIANWANG DIGUI-111", "OBJECT_ID": "2025-285G", "EPOCH": "2025-12-21T05:41:19.222656", "MEAN_MOTION": 14.03632069, "ECCENTRICITY": 0.0006665, "INCLINATION": 50.012, "RA_OF_ASC_NODE": 82.6029, "ARG_OF_PERICENTER": 321.6883, "MEAN_ANOMALY": 38.3547, "EPHEMERIS_TYPE": 0, "CLASSIFICATION_TYPE": "U", "NORAD_CAT_ID": 66921, "ELEMENT_SET_NO": 999, "REV_AT_EPOCH": 210, "BSTAR": 0.00010238, "MEAN_MOTION_DOT": 1e-07, "MEAN_MOTION_DDOT": 0}, "tle": {"line1": "1 66921U 25285G   25355.23702804  .00000010  00000+0  10238-3 0  9999", "line2": "2 66921  50.0120  82.6029 0006665 321.6883  38.3547 14.03632069  2102"}}, "geometry": {"type": "Point", "coordinates": [-159.98102072425914, 46.43060250480628]}}, {"type": "Feature", "properties": {"norad_id": 66922, "name": "HULIANWANG DIGUI-112", "group": "last-30-days", "lat": 44.336767466969036, "lon": -153.17989344511616, "alt_km": 878.6344013000717, "timestamp": "2025-12-21T09:37:21.373940+00:00", "meta": {"OBJECT_NAME": "HULIANWANG DIGUI-112", "OBJECT_ID": "2025-285H", "EPOCH": "2025-12-21T05:39:50.688576", "MEAN_MOTION": 14.03661971, "ECCENTRICITY": 0.0006492, "INCLINATION": 50.0093, "RA_OF_ASC_NODE": 82.5905, "ARG_OF_PERICENTER": 332.3433, "MEAN_ANOMALY": 27.7126, "EPHEMERIS_TYPE": 0, "CLASSIFICATION_TYPE": "U", "NORAD_CAT_ID": 66922, "ELEMENT_SET_NO": 999, "REV_AT_EPOCH": 210, "BSTAR": 0.00010345, "MEAN_MOTION_DOT": 1.2e-07, "MEAN_MOTION_DDOT": 0}, "tle": {"line1": "1 66922U 25285H   25355.23600334  .00000012  00000+0  10345-3 0  9996", "line2": "2 66922  50.0093  82.5905 0006492 332.3433  27.7126 14.03661971  2101"}}, "geometry": {"type": "Point", "coordinates": [-153.17989344511616, 44.336767466969036]}}, {"type": "Feature", "properties": {"norad_id": 66923, "name": "HULIANWANG DIGUI-113", "group": "last-30-days", "lat": 41.60159895890579, "lon": -146.2710366528201, "alt_km": 878.5175267504019, "timestamp": "2025-12-21T09:37:21.373952+00:00", "meta": {"OBJECT_NAME": "HULIANWANG DIGUI-113", "OBJECT_ID": "2025-285J", "EPOCH": "2025-12-21T05:38:12.649632", "MEAN_MOTION": 14.03699547, "ECCENTRICITY": 0.00051, "INCLINATION": 50.0093, "RA_OF_ASC_NODE": 82.586, "ARG_OF_PERICENTER": 326.9244, "MEAN_ANOMALY": 33.1341, "EPHEMERIS_TYPE": 0, "CLASSIFICATION_TYPE": "U", "NORAD_CAT_ID": 66923, "ELEMENT_SET_NO": 999, "REV_AT_EPOCH": 210, "BSTAR": -2.011e-06, "MEAN_MOTION_DOT": -1.55e-06, "MEAN_MOTION_DDOT": 0}, "tle": {"line1": "1 66923U 25285J   25355.23486863 -.00000155  00000+0 -20110-5 0  9999", "line2": "2 66923  50.0093  82.5860 0005100 326.9244  33.1341 14.03699547  2106"}}, "geometry": {"type": "Point", "coordinates": [-146.2710366528201, 41.60159895890579]}}, {"type": "Feature", "properties": {"norad_id": 66924, "name": "CZ-8A R/B", "group": "last-30-days", "lat": 28.45740242426917, "lon": 106.34699423495047, "alt_km": 798.3037439631989, "timestamp": "2025-12-21T09:37:21.373965+00:00", "meta": {"OBJECT_NAME": "CZ-8A R/B", "OBJECT_ID": "2025-285K", "EPOCH": "2025-12-20T14:59:57.859008", "MEAN_MOTION": 14.30504628, "ECCENTRICITY": 0.011927, "INCLINATION": 50.0078, "RA_OF_ASC_NODE": 82.5892, "ARG_OF_PERICENTER": 134.5434, "MEAN_ANOMALY": 226.5297, "EPHEMERIS_TYPE": 0, "CLASSIFICATION_TYPE": "U", "NORAD_CAT_ID": 66924, "ELEMENT_SET_NO": 999, "REV_AT_EPOCH": 205, "BSTAR": 4.574e-05, "MEAN_MOTION_DOT": -3.7e-07, "MEAN_MOTION_DDOT": 0}, "tle": {"line1": "1 66924U 25285K   25354.62497522 -.00000037  00000+0  45740-4 0  9999", "line2": "2 66924  50.0078  82.5892 0119270 134.5434 226.5297 14.30504628  2050"}}, "geometry": {"type": "Point", "coordinates": [106.34699423495047, 28.45740242426917]}}, {"type": "Feature", "properties": {"norad_id": 66925, "name": "STARLINK-35945", "group": "last-30-days", "lat": -50.62250636970492, "lon": -58.99529834067948, "alt_km": 351.24322896107424, "timestamp": "2025-12-21T09:37:21.373975+00:00", "meta": {"OBJECT_NAME": "STARLINK-35945", "OBJECT_ID": "2025-286A", "EPOCH": "2025-12-21T04:00:01.998720", "MEAN_MOTION": 15.75331631, "ECCENTRICITY": 0.0001136, "INCLINATION": 53.1582, "RA_OF_ASC_NODE": 8.1668, "ARG_OF_PERICENTER": 84.3048, "MEAN_ANOMALY": 311.7155, "EPHEMERIS_TYPE": 0, "CLASSIFICATION_TYPE": "U", "NORAD_CAT_ID": 66925, "ELEMENT_SET_NO": 999, "REV_AT_EPOCH": 334, "BSTAR": -0.0097967, "MEAN_MOTION_DOT": -0.01345359, "MEAN_MOTION_DDOT": 0}, "tle": {"line1": "1 66925U 25286A   25355.16668980 -.01345359  00000+0 -97967-2 0  9996", "line2": "2 66925  53.1582   8.1668 0001136  84.3048 311.7155 15.75331631  3349"}}, "geometry": {"type": "Point", "coordinates": [-58.99529834067948, -50.62250636970492]}}, {"type": "Feature", "properties": {"norad_id": 66926, "name": "STARLINK-35942", "group": "last-30-days", "lat": -49.21975739856288, "lon": -53.37647185390694, "alt_km": 351.48731046462217, "timestamp": "2025-12-21T09:37:21.373985+00:00", "meta": {"OBJECT_NAME": "STARLINK-35942", "OBJECT_ID": "2025-286B", "EPOCH": "2025-12-21T04:00:01.998720", "MEAN_MOTION": 15.7515125, "ECCENTRICITY": 9.74e-05, "INCLINATION": 53.158, "RA_OF_ASC_NODE": 8.1582, "ARG_OF_PERICENTER": 101.729, "MEAN_ANOMALY": 298.3132, "EPHEMERIS_TYPE": 0, "CLASSIFICATION_TYPE": "U", "NORAD_CAT_ID": 66926, "ELEMENT_SET_NO": 999, "REV_AT_EPOCH": 334, "BSTAR": -0.0091849, "MEAN_MOTION_DOT": -0.01260748, "MEAN_MOTION_DDOT": 0}, "tle": {"line1": "1 66926U 25286B   25355.16668980 -.01260748  00000+0 -91849-2 0  9998", "line2": "2 66926  53.1580   8.1582 0000974 101.7290 298.3132 15.75151250  3347"}}, "geometry": {"type": "Point", "coordinates": [-53.37647185390694, -49.21975739856288]}}, {"type": "Feature", "properties": {"norad_id": 66927, "name": "STARLINK-35943", "group": "last-30-days", "lat": -48.426350064144984, "lon": -50.712380006277485, "alt_km": 351.42511476599066, "timestamp": "2025-12-21T09:37:21.373995+00:00", "meta": {"OBJECT_NAME": "STARLINK-35943", "OBJECT_ID": "2025-286C", "EPOCH": "2025-12-21T04:00:01.998720", "MEAN_MOTION": 15.75065575, "ECCENTRICITY": 8.67e-05, "INCLINATION": 53.158, "RA_OF_ASC_NODE": 8.1543, "ARG_OF_PERICENTER": 101.6983, "MEAN_ANOMALY": 300.318, "EPHEMERIS_TYPE": 0, "CLASSIFICATION_TYPE": "U", "NORAD_CAT_ID": 66927, "ELEMENT_SET_NO": 999, "REV_AT_EPOCH": 334, "BSTAR": -0.0082331, "MEAN_MOTION_DOT": -0.01120092, "MEAN_MOTION_DDOT": 0}, "tle": {"line1": "1 66927U 25286C   25355.16668980 -.01120092  00000+0 -82331-2 0  9992", "line2": "2 66927  53.1580   8.1543 0000867 101.6983 300.3180 15.75065575  3345"}}, "geometry": {"type": "Point", "coordinates": [-50.712380006277485, -48.426350064144984]}}, {"type": "Feature", "properties": {"norad_id": 66928, "name": "STARLINK-35944", "group": "last-30-days", "lat": -49.950724471315866, "lon": -56.1276764880901, "alt_km": 351.2191918169865, "timestamp": "2025-12-21T09:37:21.374006+00:00", "meta": {"OBJECT_NAME": "STARLINK-35944", "OBJECT_ID": "2025-286D", "EPOCH": "2025-12-21T04:00:01.998720", "MEAN_MOTION": 15.75208731, "ECCENTRICITY": 7.06e-05, "INCLINATION": 53.158, "RA_OF_ASC_NODE": 8.1623, "ARG_OF_PERICENTER": 100.9782, "MEAN_ANOMALY": 297.0891, "EPHEMERIS_TYPE": 0, "CLASSIFICATION_TYPE": "U", "NORAD_CAT_ID": 66928, "ELEMENT_SET_NO": 999, "REV_AT_EPOCH": 334, "BSTAR": -0.0094167, "MEAN_MOTION_DOT": -0.01292099, "MEAN_MOTION_DDOT": 0}, "tle": {"line1": "1 66928U 25286D   25355.16668980 -.01292099  00000+0 -94167-2 0  9990", "line2": "2 66928  53.1580   8.1623 0000706 100.9782 297.0891 15.75208731  3340"}}, "geometry": {"type": "Point", "coordinates": [-56.1276764880901, -49.950724471315866]}}]}